{
  "type": "FeatureCollection",
  "features": [
    {
      "type": "Feature",
      "properties": {
        "norad_id": 40362,
        "name": "YAOGAN-26",
        "group": "resource",
        "lat": 12.916880818618127,
        "lon": -23.243864496160963,
        "alt_km": 447.2630413347897,
        "timestamp": "2025-12-03T08:58:45.656308+00:00",
        "meta_object_name": "YAOGAN-26",
        "meta_object_id": "2014-088A",
        "meta_epoch": "2025-12-03T04:14:27.225600",
        "meta_mean_motion": 15.38773553,
        "meta_eccentricity": 0.0007333,
        "meta_inclination": 97.0637,
        "meta_ra_of_asc_node": 338.1955,
        "meta_arg_of_pericenter": 55.6433,
        "meta_mean_anomaly": 304.5505,
        "meta_ephemeris_type": 0,
        "meta_classification_type": "U",
        "meta_norad_cat_id": 40362,
        "meta_element_set_no": 999,
        "meta_rev_at_epoch": 60747,
        "meta_bstar": 0.000627,
        "meta_mean_motion_dot": 0.0002402,
        "meta_mean_motion_ddot": 0,
        "tle_line1": "1 40362U 14088A   25337.17670400  .00024020  00000+0  62700-3 0  9996",
        "tle_line2": "2 40362  97.0637 338.1955 0007333  55.6433 304.5505 15.38773553607478"
      },
      "geometry": {
        "type": "Point",
        "coordinates": [
          -23.243864496160963,
          12.916880818618127
        ]
      }
    },
    {
      "type": "Feature",
      "properties": {
        "norad_id": 40376,
        "name": "SMAP",
        "group": "resource",
        "lat": -68.35351021625085,
        "lon": 3.342857932874842,
        "alt_km": 690.500235299306,
        "timestamp": "2025-12-03T08:58:45.656318+00:00",
        "meta_object_name": "SMAP",
        "meta_object_id": "2015-003A",
        "meta_epoch": "2025-12-03T04:22:30.015840",
        "meta_mean_motion": 14.63324704,
        "meta_eccentricity": 0.0001212,
        "meta_inclination": 98.1291,
        "meta_ra_of_asc_node": 342.044,
        "meta_arg_of_pericenter": 87.0438,
        "meta_mean_anomaly": 273.0903,
        "meta_ephemeris_type": 0,
        "meta_classification_type": "U",
        "meta_norad_cat_id": 40376,
        "meta_element_set_no": 999,
        "meta_rev_at_epoch": 57895,
        "meta_bstar": 0.0001603,
        "meta_mean_motion_dot": 7.81e-06,
        "meta_mean_motion_ddot": 0,
        "tle_line1": "1 40376U 15003A   25337.18229185  .00000781  00000+0  16030-3 0  9993",
        "tle_line2": "2 40376  98.1291 342.0440 0001212  87.0438 273.0903 14.63324704578957"
      },
      "geometry": {
        "type": "Point",
        "coordinates": [
          3.342857932874842,
          -68.35351021625085
        ]
      }
    },
    {
      "type": "Feature",
      "properties": {
        "norad_id": 40536,
        "name": "KOMPSAT-3A",
        "group": "resource",
        "lat": 22.668381613668114,
        "lon": 134.43768275067748,
        "alt_km": 433.2606734395049,
        "timestamp": "2025-12-03T08:58:45.656328+00:00",
        "meta_object_name": "KOMPSAT-3A",
        "meta_object_id": "2015-014A",
        "meta_epoch": "2025-12-03T05:11:21.871104",
        "meta_mean_motion": 15.43411804,
        "meta_eccentricity": 0.0003745,
        "meta_inclination": 97.6772,
        "meta_ra_of_asc_node": 311.0414,
        "meta_arg_of_pericenter": 147.8054,
        "meta_mean_anomaly": 212.3422,
        "meta_ephemeris_type": 0,
        "meta_classification_type": "U",
        "meta_norad_cat_id": 40536,
        "meta_element_set_no": 999,
        "meta_rev_at_epoch": 59148,
        "meta_bstar": 0.00057218,
        "meta_mean_motion_dot": 0.00025532,
        "meta_mean_motion_ddot": 0,
        "tle_line1": "1 40536U 15014A   25337.21622536  .00025532  00000+0  57218-3 0  9998",
        "tle_line2": "2 40536  97.6772 311.0414 0003745 147.8054 212.3422 15.43411804591484"
      },
      "geometry": {
        "type": "Point",
        "coordinates": [
          134.43768275067748,
          22.668381613668114
        ]
      }
    },
    {
      "type": "Feature",
      "properties": {
        "norad_id": 40697,
        "name": "SENTINEL-2A",
        "group": "resource",
        "lat": 6.851090701484437,
        "lon": -128.92168186670085,
        "alt_km": 790.8529175609319,
        "timestamp": "2025-12-03T08:58:45.656338+00:00",
        "meta_object_name": "SENTINEL-2A",
        "meta_object_id": "2015-028A",
        "meta_epoch": "2025-12-03T04:49:01.412256",
        "meta_mean_motion": 14.30821023,
        "meta_eccentricity": 0.0001038,
        "meta_inclination": 98.5703,
        "meta_ra_of_asc_node": 49.8692,
        "meta_arg_of_pericenter": 93.6913,
        "meta_mean_anomaly": 266.4388,
        "meta_ephemeris_type": 0,
        "meta_classification_type": "U",
        "meta_norad_cat_id": 40697,
        "meta_element_set_no": 999,
        "meta_rev_at_epoch": 54570,
        "meta_bstar": 0.00010182,
        "meta_mean_motion_dot": 2.23e-06,
        "meta_mean_motion_ddot": 0,
        "tle_line1": "1 40697U 15028A   25337.20071079  .00000223  00000+0  10182-3 0  9999",
        "tle_line2": "2 40697  98.5703  49.8692 0001038  93.6913 266.4388 14.30821023545703"
      },
      "geometry": {
        "type": "Point",
        "coordinates": [
          -128.92168186670085,
          6.851090701484437
        ]
      }
    },
    {
      "type": "Feature",
      "properties": {
        "norad_id": 40701,
        "name": "GAOFEN-8",
        "group": "resource",
        "lat": -21.46524844800696,
        "lon": -27.984481294269848,
        "alt_km": 450.70190357187494,
        "timestamp": "2025-12-03T08:58:45.656349+00:00",
        "meta_object_name": "GAOFEN-8",
        "meta_object_id": "2015-030A",
        "meta_epoch": "2025-12-03T04:58:59.561184",
        "meta_mean_motion": 15.38040536,
        "meta_eccentricity": 0.0011195,
        "meta_inclination": 97.6906,
        "meta_ra_of_asc_node": 154.887,
        "meta_arg_of_pericenter": 171.6218,
        "meta_mean_anomaly": 188.5215,
        "meta_ephemeris_type": 0,
        "meta_classification_type": "U",
        "meta_norad_cat_id": 40701,
        "meta_element_set_no": 999,
        "meta_rev_at_epoch": 58124,
        "meta_bstar": 0.00066324,
        "meta_mean_motion_dot": 0.00024839,
        "meta_mean_motion_ddot": 0,
        "tle_line1": "1 40701U 15030A   25337.20763381  .00024839  00000+0  66324-3 0  9990",
        "tle_line2": "2 40701  97.6906 154.8870 0011195 171.6218 188.5215 15.38040536581242"
      },
      "geometry": {
        "type": "Point",
        "coordinates": [
          -27.984481294269848,
          -21.46524844800696
        ]
      }
    },
    {
      "type": "Feature",
      "properties": {
        "norad_id": 40718,
        "name": "CARBONITE 1 (CBNT-1)",
        "group": "resource",
        "lat": -24.638941030973434,
        "lon": -24.69894312366062,
        "alt_km": 616.9408972822321,
        "timestamp": "2025-12-03T08:58:45.656359+00:00",
        "meta_object_name": "CARBONITE 1 (CBNT-1)",
        "meta_object_id": "2015-032D",
        "meta_epoch": "2025-12-03T04:49:07.519008",
        "meta_mean_motion": 14.8266924,
        "meta_eccentricity": 0.0013823,
        "meta_inclination": 97.64,
        "meta_ra_of_asc_node": 158.6651,
        "meta_arg_of_pericenter": 213.7373,
        "meta_mean_anomaly": 146.2962,
        "meta_ephemeris_type": 0,
        "meta_classification_type": "U",
        "meta_norad_cat_id": 40718,
        "meta_element_set_no": 999,
        "meta_rev_at_epoch": 56029,
        "meta_bstar": 0.00042872,
        "meta_mean_motion_dot": 3.412e-05,
        "meta_mean_motion_ddot": 0,
        "tle_line1": "1 40718U 15032D   25337.20078147  .00003412  00000+0  42872-3 0  9995",
        "tle_line2": "2 40718  97.6400 158.6651 0013823 213.7373 146.2962 14.82669240560297"
      },
      "geometry": {
        "type": "Point",
        "coordinates": [
          -24.69894312366062,
          -24.638941030973434
        ]
      }
    },
    {
      "type": "Feature",
      "properties": {
        "norad_id": 40878,
        "name": "YAOGAN-27",
        "group": "resource",
        "lat": 65.19394424123465,
        "lon": 170.10108445830778,
        "alt_km": 1198.9636270710325,
        "timestamp": "2025-12-03T08:58:45.656370+00:00",
        "meta_object_name": "YAOGAN-27",
        "meta_object_id": "2015-040A",
        "meta_epoch": "2025-12-03T04:45:33.570144",
        "meta_mean_motion": 13.16059638,
        "meta_eccentricity": 0.0007747,
        "meta_inclination": 100.1004,
        "meta_ra_of_asc_node": 327.2502,
        "meta_arg_of_pericenter": 310.2381,
        "meta_mean_anomaly": 49.8055,
        "meta_ephemeris_type": 0,
        "meta_classification_type": "U",
        "meta_norad_cat_id": 40878,
        "meta_element_set_no": 999,
        "meta_rev_at_epoch": 49188,
        "meta_bstar": 4.4902e-05,
        "meta_mean_motion_dot": -2.5e-07,
        "meta_mean_motion_ddot": 0,
        "tle_line1": "1 40878U 15040A   25337.19830521 -.00000025  00000+0  44902-4 0  9996",
        "tle_line2": "2 40878 100.1004 327.2502 0007747 310.2381  49.8055 13.16059638491882"
      },
      "geometry": {
        "type": "Point",
        "coordinates": [
          170.10108445830778,
          65.19394424123465
        ]
      }
    }
  ]
}